[{"OBJECT_NAME":"IRIDIUM 152","OBJECT_ID":"2018-047D","EPOCH":"2026-04-25T16:56:10.231008","MEAN_MOTION":14.34217544,"ECCENTRICITY":0.00020958,"INCLINATION":86.3921,"RA_OF_ASC_NODE":110.28,"ARG_OF_PERICENTER":92.1014,"MEAN_ANOMALY":268.0422,"EPHEMERIS_TYPE":0,"CLASSIFICATION_TYPE":"U","NORAD_CAT_ID":43479,"ELEMENT_SET_NO":999,"REV_AT_EPOCH":41496,"BSTAR":-4.16354e-7,"MEAN_MOTION_DOT":1.9e-7,"MEAN_MOTION_DDOT":0},{"OBJECT_NAME":"IRIDIUM 147","OBJECT_ID":"2018-047E","EPOCH":"2026-04-25T22:06:42.241536","MEAN_MOTION":14.34217339,"ECCENTRICITY":0.0002238,"INCLINATION":86.3924,"RA_OF_ASC_NODE":110.1942,"ARG_OF_PERICENTER":86.9005,"MEAN_ANOMALY":273.2447,"EPHEMERIS_TYPE":0,"CLASSIFICATION_TYPE":"U","NORAD_CAT_ID":43480,"ELEMENT_SET_NO":999,"REV_AT_EPOCH":41499,"BSTAR":-7.511494e-6,"MEAN_MOTION_DOT":-1.0e-8,"MEAN_MOTION_DDOT":0},{"OBJECT_NAME":"IRIDIUM 110","OBJECT_ID":"2018-047F","EPOCH":"2026-04-25T17:14:26.080224","MEAN_MOTION":14.34217598,"ECCENTRICITY":0.00018419,"INCLINATION":86.3927,"RA_OF_ASC_NODE":110.3695,"ARG_OF_PERICENTER":95.1421,"MEAN_ANOMALY":264.9985,"EPHEMERIS_TYPE":0,"CLASSIFICATION_TYPE":"U","NORAD_CAT_ID":43481,"ELEMENT_SET_NO":999,"REV_AT_EPOCH":41495,"BSTAR":-3.744656e-6,"MEAN_MOTION_DOT":9.0e-8,"MEAN_MOTION_DDOT":0},{"OBJECT_NAME":"IRIDIUM 162","OBJECT_ID":"2018-047G","EPOCH":"2026-04-25T22:57:27.635040","MEAN_MOTION":14.43281323,"ECCENTRICITY":0.00024023,"INCLINATION":86.4444,"RA_OF_ASC_NODE":110.2061,"ARG_OF_PERICENTER":91.955,"MEAN_ANOMALY":268.1926,"EPHEMERIS_TYPE":0,"CLASSIFICATION_TYPE":"U","NORAD_CAT_ID":43482,"ELEMENT_SET_NO":999,"REV_AT_EPOCH":41759,"BSTAR":4.8539399e-5,"MEAN_MOTION_DOT":1.83e-6,"MEAN_MOTION_DDOT":0},{"OBJECT_NAME":"IRIDIUM 160","OBJECT_ID":"2018-061A","EPOCH":"2026-04-25T22:38:18.441600","MEAN_MOTION":14.34217118,"ECCENTRICITY":0.00020232,"INCLINATION":86.3941,"RA_OF_ASC_NODE":78.6389,"ARG_OF_PERICENTER":85.8807,"MEAN_ANOMALY":274.262,"EPHEMERIS_TYPE":0,"CLASSIFICATION_TYPE":"U","NORAD_CAT_ID":43569,"ELEMENT_SET_NO":999,"REV_AT_EPOCH":40588,"BSTAR":-6.59018e-7,"MEAN_MOTION_DOT":1.8e-7,"MEAN_MOTION_DDOT":0},{"OBJECT_NAME":"IRIDIUM 166","OBJECT_ID":"2018-061B","EPOCH":"2026-04-25T21:34:24.186720","MEAN_MOTION":14.34217857,"ECCENTRICITY":0.00023652,"INCLINATION":86.3936,"RA_OF_ASC_NODE":78.6082,"ARG_OF_PERICENTER":84.3844,"MEAN_ANOMALY":275.7621,"EPHEMERIS_TYPE":0,"CLASSIFICATION_TYPE":"U","NORAD_CAT_ID":43570,"ELEMENT_SET_NO":999,"REV_AT_EPOCH":40590,"BSTAR":8.9817688e-5,"MEAN_MOTION_DOT":2.71e-6,"MEAN_MOTION_DDOT":0},{"OBJECT_NAME":"IRIDIUM 158","OBJECT_ID":"2018-061C","EPOCH":"2026-04-25T22:29:10.482432","MEAN_MOTION":14.34217419,"ECCENTRICITY":0.00021732,"INCLINATION":86.3939,"RA_OF_ASC_NODE":78.6026,"ARG_OF_PERICENTER":89.8182,"MEAN_ANOMALY":270.3263,"EPHEMERIS_TYPE":0,"CLASSIFICATION_TYPE":"U","NORAD_CAT_ID":43571,"ELEMENT_SET_NO":999,"REV_AT_EPOCH":40587,"BSTAR":-7.816238e-6,"MEAN_MOTION_DOT":-2.0e-8,"MEAN_MOTION_DDOT":0},{"OBJECT_NAME":"IRIDIUM 165","OBJECT_ID":"2018-061D","EPOCH":"2026-04-25T23:05:42.506592","MEAN_MOTION":14.34217515,"ECCENTRICITY":0.00023595,"INCLINATION":86.3938,"RA_OF_ASC_NODE":78.637,"ARG_OF_PERICENTER":84.273,"MEAN_ANOMALY":275.8735,"EPHEMERIS_TYPE":0,"CLASSIFICATION_TYPE":"U","NORAD_CAT_ID":43572,"ELEMENT_SET_NO":999,"REV_AT_EPOCH":40590,"BSTAR":3.279494e-6,"MEAN_MOTION_DOT":2.9e-7,"MEAN_MOTION_DDOT":0},{"OBJECT_NAME":"IRIDIUM 155","OBJECT_ID":"2018-061E","EPOCH":"2026-04-25T20:30:26.507808","MEAN_MOTION":14.34217009,"ECCENTRICITY":0.00022972,"INCLINATION":86.3937,"RA_OF_ASC_NODE":78.554,"ARG_OF_PERICENTER":88.4257,"MEAN_ANOMALY":271.7202,"EPHEMERIS_TYPE":0,"CLASSIFICATION_TYPE":"U","NORAD_CAT_ID":43573,"ELEMENT_SET_NO":999,"REV_AT_EPOCH":40585,"BSTAR":-1.8540794e-5,"MEAN_MOTION_DOT":-3.2e-7,"MEAN_MOTION_DDOT":0},{"OBJECT_NAME":"IRIDIUM 154","OBJECT_ID":"2018-061F","EPOCH":"2026-04-25T21:43:30.493920","MEAN_MOTION":14.34217462,"ECCENTRICITY":0.00023323,"INCLINATION":86.3938,"RA_OF_ASC_NODE":78.6636,"ARG_OF_PERICENTER":83.1676,"MEAN_ANOMALY":276.9785,"EPHEMERIS_TYPE":0,"CLASSIFICATION_TYPE":"U","NORAD_CAT_ID":43574,"ELEMENT_SET_NO":999,"REV_AT_EPOCH":40591,"BSTAR":1.4912625e-5,"MEAN_MOTION_DOT":6.2e-7,"MEAN_MOTION_DDOT":0},{"OBJECT_NAME":"IRIDIUM 163","OBJECT_ID":"2018-061G","EPOCH":"2026-04-25T22:56:34.463616","MEAN_MOTION":14.34218604,"ECCENTRICITY":0.00022336,"INCLINATION":86.3936,"RA_OF_ASC_NODE":78.5593,"ARG_OF_PERICENTER":89.467,"MEAN_ANOMALY":270.6782,"EPHEMERIS_TYPE":0,"CLASSIFICATION_TYPE":"U","NORAD_CAT_ID":43575,"ELEMENT_SET_NO":999,"REV_AT_EPOCH":40589,"BSTAR":8.2302289e-5,"MEAN_MOTION_DOT":2.5e-6,"MEAN_MOTION_DDOT":0},{"OBJECT_NAME":"IRIDIUM 156","OBJECT_ID":"2018-061H","EPOCH":"2026-04-25T22:20:02.520672","MEAN_MOTION":14.34217236,"ECCENTRICITY":0.00023259,"INCLINATION":86.3939,"RA_OF_ASC_NODE":78.5774,"ARG_OF_PERICENTER":87.7892,"MEAN_ANOMALY":272.3571,"EPHEMERIS_TYPE":0,"CLASSIFICATION_TYPE":"U","NORAD_CAT_ID":43576,"ELEMENT_SET_NO":999,"REV_AT_EPOCH":40588,"BSTAR":-1.0805022e-5,"MEAN_MOTION_DOT":-1.0e-7,"MEAN_MOTION_DDOT":0},{"OBJECT_NAME":"IRIDIUM 164","OBJECT_ID":"2018-061J","EPOCH":"2026-04-25T20:12:10.434816","MEAN_MOTION":14.34217885,"ECCENTRICITY":0.00022928,"INCLINATION":86.3938,"RA_OF_ASC_NODE":78.6539,"ARG_OF_PERICENTER":82.4675,"MEAN_ANOMALY":277.6781,"EPHEMERIS_TYPE":0,"CLASSIFICATION_TYPE":"U","NORAD_CAT_ID":43577,"ELEMENT_SET_NO":999,"REV_AT_EPOCH":40591,"BSTAR":1.1347467e-5,"MEAN_MOTION_DOT":5.2e-7,"MEAN_MOTION_DDOT":0},{"OBJECT_NAME":"IRIDIUM 159","OBJECT_ID":"2018-061K","EPOCH":"2026-04-25T22:47:26.456928","MEAN_MOTION":14.34217443,"ECCENTRICITY":0.00020296,"INCLINATION":86.3937,"RA_OF_ASC_NODE":78.5469,"ARG_OF_PERICENTER":87.6232,"MEAN_ANOMALY":272.5196,"EPHEMERIS_TYPE":0,"CLASSIFICATION_TYPE":"U","NORAD_CAT_ID":43578,"ELEMENT_SET_NO":999,"REV_AT_EPOCH":40589,"BSTAR":-3.0400698e-5,"MEAN_MOTION_DOT":-6.5e-7,"MEAN_MOTION_DDOT":0},{"OBJECT_NAME":"IRIDIUM 180","OBJECT_ID":"2019-002A","EPOCH":"2026-04-25T19:25:46.884288","MEAN_MOTION":14.34217907,"ECCENTRICITY":0.00020837,"INCLINATION":86.4015,"RA_OF_ASC_NODE":15.4859,"ARG_OF_PERICENTER":85.4872,"MEAN_ANOMALY":274.6562,"EPHEMERIS_TYPE":0,"CLASSIFICATION_TYPE":"U","NORAD_CAT_ID":43922,"ELEMENT_SET_NO":999,"REV_AT_EPOCH":38148,"BSTAR":4.1009203e-5,"MEAN_MOTION_DOT":1.35e-6,"MEAN_MOTION_DDOT":0},{"OBJECT_NAME":"IRIDIUM 176","OBJECT_ID":"2019-002B","EPOCH":"2026-04-25T23:02:05.339328","MEAN_MOTION":14.72257633,"ECCENTRICITY":0.00025029,"INCLINATION":86.6135,"RA_OF_ASC_NODE":15.3742,"ARG_OF_PERICENTER":82.2497,"MEAN_ANOMALY":277.9004,"EPHEMERIS_TYPE":0,"CLASSIFICATION_TYPE":"U","NORAD_CAT_ID":43923,"ELEMENT_SET_NO":999,"REV_AT_EPOCH":39156,"BSTAR":0.00012341037,"MEAN_MOTION_DOT":8.03e-6,"MEAN_MOTION_DDOT":0},{"OBJECT_NAME":"IRIDIUM 168","OBJECT_ID":"2019-002C","EPOCH":"2026-04-25T17:36:12.127680","MEAN_MOTION":14.34219729,"ECCENTRICITY":0.00021574,"INCLINATION":86.4017,"RA_OF_ASC_NODE":15.5934,"ARG_OF_PERICENTER":84.5324,"MEAN_ANOMALY":275.6118,"EPHEMERIS_TYPE":0,"CLASSIFICATION_TYPE":"U","NORAD_CAT_ID":43924,"ELEMENT_SET_NO":999,"REV_AT_EPOCH":38145,"BSTAR":6.9916164e-5,"MEAN_MOTION_DOT":2.16e-6,"MEAN_MOTION_DDOT":0}]
