IRIDIUM 152             
1 43479U 18047D   26115.70567397  .00000019  00000+0 -41635-6 0  9991
2 43479  86.3921 110.2800 0002095  92.1014 268.0422 14.34217544414966
IRIDIUM 147             
1 43480U 18047E   26115.92132224 -.00000001  00000+0 -75115-5 0  9995
2 43480  86.3924 110.1942 0002238  86.9005 273.2447 14.34217339414997
IRIDIUM 110             
1 43481U 18047F   26115.71835741  .00000009  00000+0 -37447-5 0  9990
2 43481  86.3927 110.3695 0001841  95.1421 264.9985 14.34217598414958
IRIDIUM 162             
1 43482U 18047G   26115.95656985  .00000183  00000+0  48539-4 0  9993
2 43482  86.4444 110.2061 0002402  91.9550 268.1926 14.43281323417592
IRIDIUM 160             
1 43569U 18061A   26115.94326900  .00000018  00000+0 -65902-6 0  9998
2 43569  86.3941  78.6389 0002023  85.8807 274.2620 14.34217118405884
IRIDIUM 166             
1 43570U 18061B   26115.89889105  .00000271  00000+0  89818-4 0  9995
2 43570  86.3936  78.6082 0002365  84.3844 275.7621 14.34217857405904
IRIDIUM 158             
1 43571U 18061C   26115.93692688 -.00000002  00000+0 -78162-5 0  9994
2 43571  86.3939  78.6026 0002173  89.8182 270.3263 14.34217419405871
IRIDIUM 165             
1 43572U 18061D   26115.96229753  .00000029  00000+0  32795-5 0  9996
2 43572  86.3938  78.6370 0002359  84.2730 275.8735 14.34217515405902
IRIDIUM 155             
1 43573U 18061E   26115.85447347 -.00000032  00000+0 -18541-4 0  9994
2 43573  86.3937  78.5540 0002297  88.4257 271.7202 14.34217009405857
IRIDIUM 154             
1 43574U 18061F   26115.90521405  .00000062  00000+0  14913-4 0  9999
2 43574  86.3938  78.6636 0002332  83.1676 276.9785 14.34217462405916
IRIDIUM 163             
1 43575U 18061G   26115.95595444  .00000250  00000+0  82302-4 0  9995
2 43575  86.3936  78.5593 0002233  89.4670 270.6782 14.34218604405893
IRIDIUM 156             
1 43576U 18061H   26115.93058473 -.00000010  00000+0 -10805-4 0  9995
2 43576  86.3939  78.5774 0002325  87.7892 272.3571 14.34217236405881
IRIDIUM 164             
1 43577U 18061J   26115.84178744  .00000052  00000+0  11347-4 0  9996
2 43577  86.3938  78.6539 0002292  82.4675 277.6781 14.34217885405910
IRIDIUM 159             
1 43578U 18061K   26115.94961177 -.00000065  00000+0 -30401-4 0  9996
2 43578  86.3937  78.5469 0002029  87.6232 272.5196 14.34217443405896
IRIDIUM 180             
1 43922U 19002A   26115.80957042  .00000135  00000+0  41009-4 0  9998
2 43922  86.4015  15.4859 0002083  85.4872 274.6562 14.34217907381489
IRIDIUM 176             
1 43923U 19002B   26115.95978402  .00000803  00000+0  12341-3 0  9996
2 43923  86.6135  15.3742 0002502  82.2497 277.9004 14.72257633391568
IRIDIUM 168             
1 43924U 19002C   26115.73347370  .00000216  00000+0  69916-4 0  9996
2 43924  86.4017  15.5934 0002157  84.5324 275.6118 14.34219729381451
